COMMENT,ORIGINATOR,NORAD_CAT_ID,OBJECT_NAME,OBJECT_TYPE,CLASSIFICATION_TYPE,INTLDES,EPOCH,EPOCH_MICROSECONDS,MEAN_MOTION,ECCENTRICITY,INCLINATION,RA_OF_ASC_NODE,ARG_OF_PERICENTER,MEAN_ANOMALY,EPHEMERIS_TYPE,ELEMENT_SET_NO,REV_AT_EPOCH,BSTAR,MEAN_MOTION_DOT,MEAN_MOTION_DDOT,FILE,TLE_LINE0,TLE_LINE1,TLE_LINE2,OBJECT_ID,OBJECT_NUMBER,SEMIMAJOR_AXIS,PERIOD,APOGEE,PERIGEE,DECAYED
"GENERATED VIA SPACETRACK.ORG API","18 SPCS","48896","SPACEBEE-105","PAYLOAD","U","21059T","2022-06-15 15:18:14","223168","15.15703509","0.0010065","97.5551","296.1609","105.2417","254.9928","0","999","5365","0.00065093","0.00012357","0","3496999","0 SPACEBEE-105","1 48896U 21059T   22166.63766462  .00012357  00000-0  65093-3 0  9993","2 48896  97.5551 296.1609 0010065 105.2417 254.9928 15.15703509 53658","2021-059T","48896","6896.981","95.005","525.787","511.904","0"
"GENERATED VIA SPACETRACK.ORG API","18 SPCS","48896","SPACEBEE-105","PAYLOAD","U","21059T","2022-06-15 21:38:29","972256","15.15710476","0.0010071","97.5553","296.4234","104.4276","255.8074","0","999","5369","0.00071948","0.0001367","0","3497002","0 SPACEBEE-105","1 48896U 21059T   22166.90173579  .00013670  00000-0  71948-3 0  9999","2 48896  97.5553 296.4234 0010071 104.4276 255.8074 15.15710476 53695","2021-059T","48896","6896.959","95.005","525.770","511.879","0"
"GENERATED VIA SPACETRACK.ORG API","18 SPCS","48896","SPACEBEE-105","PAYLOAD","U","21059T","2022-06-19 08:01:47","248896","15.15778861","0.0010076","97.5552","299.8387","94.1676","266.0708","0","999","5421","0.0005513","0.00010475","0","3497010","0 SPACEBEE-105","1 48896U 21059T   22170.33457464  .00010475  00000-0  55130-3 0  9994","2 48896  97.5552 299.8387 0010076  94.1676 266.0708 15.15778861 54213","2021-059T","48896","6896.752","95.001","525.566","511.668","0"
"GENERATED VIA SPACETRACK.ORG API","18 SPCS","48896","SPACEBEE-105","PAYLOAD","U","21059T","2022-06-19 20:42:16","389216","15.15787787","0.0010021","97.555","300.3641","92.5818","267.6562","0","999","5429","0.00049753","0.00009448","0","3497669","0 SPACEBEE-105","1 48896U 21059T   22170.86268969  .00009448  00000-0  49753-3 0  9994","2 48896  97.5550 300.3641 0010021  92.5818 267.6562 15.15787787 54292","2021-059T","48896","6896.725","95.000","525.501","511.679","0"
"GENERATED VIA SPACETRACK.ORG API","18 SPCS","48896","SPACEBEE-105","PAYLOAD","U","21059T","2022-06-20 07:47:41","649504","15.15795641","0.0009987","97.5549","300.8239","91.1874","269.0503","0","999","5436","0.00045528","0.00008641","0","3498071","0 SPACEBEE-105","1 48896U 21059T   22171.32478761  .00008641  00000-0  45528-3 0  9999","2 48896  97.5549 300.8239 0009987  91.1874 269.0503 15.15795641 54361","2021-059T","48896","6896.701","95.000","525.454","511.678","0"
"GENERATED VIA SPACETRACK.ORG API","18 SPCS","48896","SPACEBEE-105","PAYLOAD","U","21059T","2022-06-20 18:53:06","633312","15.15806635","0.000994","97.5548","301.2836","89.7166","270.5205","0","999","5443","0.00054104","0.00010286","0","3498176","0 SPACEBEE-105","1 48896U 21059T   22171.78688233  .00010286  00000-0  54104-3 0  9994","2 48896  97.5548 301.2836 0009940  89.7166 270.5205 15.15806635 54434","2021-059T","48896","6896.668","94.999","525.388","511.677","0"
"GENERATED VIA SPACETRACK.ORG API","18 SPCS","48896","SPACEBEE-105","PAYLOAD","U","21059T","2022-06-20 18:53:06","633312","15.15806635","0.000994","97.5548","301.2836","89.7166","270.5205","0","999","5443","0.00054104","0.00010286","0","3498404","0 SPACEBEE-105","1 48896U 21059T   22171.78688233  .00010286  00000-0  54104-3 0  9994","2 48896  97.5548 301.2836 0009940  89.7166 270.5205 15.15806635 54434","2021-059T","48896","6896.668","94.999","525.388","511.677","0"
"GENERATED VIA SPACETRACK.ORG API","18 SPCS","48896","SPACEBEE-105","PAYLOAD","U","21059T","2022-06-21 01:13:20","805600","15.15811612","0.0009913","97.5548","301.5463","88.9566","271.2802","0","999","5447","0.00053484","0.00010169","0","3498878","0 SPACEBEE-105","1 48896U 21059T   22172.05093525  .00010169  00000-0  53484-3 0  9999","2 48896  97.5548 301.5463 0009913  88.9566 271.2802 15.15811612 54474","2021-059T","48896","6896.653","94.999","525.354","511.681","0"
"GENERATED VIA SPACETRACK.ORG API","18 SPCS","48896","SPACEBEE-105","PAYLOAD","U","21059T","2022-06-21 20:14:02","836032","15.15827634","0.0009892","97.5547","302.3343","86.5393","273.697","0","999","5459","0.00050921","0.00009682","0","3499203","0 SPACEBEE-105","1 48896U 21059T   22172.84308838  .00009682  00000-0  50921-3 0  9993","2 48896  97.5547 302.3343 0009892  86.5393 273.6970 15.15827634 54593","2021-059T","48896","6896.604","94.998","525.291","511.647","0"
"GENERATED VIA SPACETRACK.ORG API","18 SPCS","48896","SPACEBEE-105","PAYLOAD","U","21059T","2022-06-22 04:09:20","129760","15.1583428","0.0009913","97.5549","302.6628","85.5361","274.7004","0","999","5464","0.00051913","0.00009874","0","3499330","0 SPACEBEE-105","1 48896U 21059T   22173.17314965  .00009874  00000-0  51913-3 0  9993","2 48896  97.5549 302.6628 0009913  85.5361 274.7004 15.15834280 54643","2021-059T","48896","6896.584","94.997","525.286","511.612","0"
"GENERATED VIA SPACETRACK.ORG API","18 SPCS","48896","SPACEBEE-105","PAYLOAD","U","21059T","2022-06-22 07:19:27","16320","15.15836811","0.0009907","97.5549","302.7942","85.1483","275.088","0","999","5466","0.00050972","0.00009694","0","3499789","0 SPACEBEE-105","1 48896U 21059T   22173.30517380  .00009694  00000-0  50972-3 0  9998","2 48896  97.5549 302.7942 0009907  85.1483 275.0880 15.15836811 54667","2021-059T","48896","6896.576","94.997","525.274","511.609","0"
"GENERATED VIA SPACETRACK.ORG API","18 SPCS","48896","SPACEBEE-105","PAYLOAD","U","21059T","2022-06-22 21:34:57","739296","15.15848973","0.0009922","97.555","303.3853","83.3906","276.8456","0","999","5475","0.00050569","0.0000962","0","3500001","0 SPACEBEE-105","1 48896U 21059T   22173.89927939  .00009620  00000-0  50569-3 0  9998","2 48896  97.5550 303.3853 0009922  83.3906 276.8456 15.15848973 54754","2021-059T","48896","6896.539","94.996","525.247","511.562","0"
"GENERATED VIA SPACETRACK.ORG API","18 SPCS","48896","SPACEBEE-105","PAYLOAD","U","21059T","2022-06-23 08:40:21","369216","15.15857952","0.0009945","97.555","303.845","81.9853","278.2507","0","999","5482","0.00049728","0.00009462","0","3500350","0 SPACEBEE-105","1 48896U 21059T   22174.36135844  .00009462  00000-0  49728-3 0  9996","2 48896  97.5550 303.8450 0009945  81.9853 278.2507 15.15857952 54820","2021-059T","48896","6896.512","94.996","525.236","511.519","0"
"GENERATED VIA SPACETRACK.ORG API","18 SPCS","48896","SPACEBEE-105","PAYLOAD","U","21059T","2022-06-23 08:40:21","369216","15.15857952","0.0009945","97.555","303.845","81.9853","278.2507","0","999","5482","0.00049728","0.00009462","0","3500539","0 SPACEBEE-105","1 48896U 21059T   22174.36135844  .00009462  00000-0  49728-3 0  9996","2 48896  97.5550 303.8450 0009945  81.9853 278.2507 15.15857952 54820","2021-059T","48896","6896.512","94.996","525.236","511.519","0"
"GENERATED VIA SPACETRACK.ORG API","18 SPCS","48896","SPACEBEE-105","PAYLOAD","U","21059T","2022-06-23 19:45:44","818560","15.15863645","0.0009958","97.5551","304.3048","80.6522","279.5836","0","999","5489","0.00040182","0.00007632","0","3501177","0 SPACEBEE-105","1 48896U 21059T   22174.82343540  .00007632  00000-0  40182-3 0  9993","2 48896  97.5551 304.3048 0009958  80.6522 279.5836 15.15863645 54895","2021-059T","48896","6896.495","94.995","525.227","511.492","0"
"GENERATED VIA SPACETRACK.ORG API","18 SPCS","48896","SPACEBEE-105","PAYLOAD","U","21059T","2022-06-24 08:26:11","351328","15.1587261","0.0009943","97.5551","304.8302","79.0996","281.1355","0","999","5497","0.00040054","0.00007609","0","3501501","0 SPACEBEE-105","1 48896U 21059T   22175.35152027  .00007609  00000-0  40054-3 0  9992","2 48896  97.5551 304.8302 0009943  79.0996 281.1355 15.15872610 54970","2021-059T","48896","6896.468","94.995","525.190","511.476","0"
"GENERATED VIA SPACETRACK.ORG API","18 SPCS","48896","SPACEBEE-105","PAYLOAD","U","21059T","2022-06-24 21:06:37","688832","15.15878647","0.0009917","97.5551","305.3556","77.5706","282.6636","0","999","5505","0.00033485","0.0000635","0","3501798","0 SPACEBEE-105","1 48896U 21059T   22175.87960288  .00006350  00000-0  33485-3 0  9997","2 48896  97.5551 305.3556 0009917  77.5706 282.6636 15.15878647 55054","2021-059T","48896","6896.449","94.994","525.154","511.475","0"
"GENERATED VIA SPACETRACK.ORG API","18 SPCS","48896","SPACEBEE-105","PAYLOAD","U","21059T","2022-06-25 03:26:50","766432","15.15883228","0.0009905","97.5551","305.6183","76.7229","283.5108","0","999","5509","0.00037236","0.00007071","0","3501875","0 SPACEBEE-105","1 48896U 21059T   22176.14364313  .00007071  00000-0  37236-3 0  9994","2 48896  97.5551 305.6183 0009905  76.7229 283.5108 15.15883228 55090","2021-059T","48896","6896.435","94.994","525.131","511.470","0"
"GENERATED VIA SPACETRACK.ORG API","18 SPCS","48896","SPACEBEE-105","PAYLOAD","U","21059T","2022-06-25 08:12:00","536832","15.15886242","0.0009891","97.5551","305.8153","76.0994","284.1338","0","999","5512","0.00037254","0.00007075","0","3502315","0 SPACEBEE-105","1 48896U 21059T   22176.34167288  .00007075  00000-0  37254-3 0  9992","2 48896  97.5551 305.8153 0009891  76.0994 284.1338 15.15886242 55120","2021-059T","48896","6896.426","94.994","525.113","511.470","0"
"GENERATED VIA SPACETRACK.ORG API","18 SPCS","48896","SPACEBEE-105","PAYLOAD","U","21059T","2022-06-25 20:52:26","419008","15.15894279","0.000985","97.5552","306.3407","74.5074","285.7245","0","999","5520","0.00038008","0.00007221","0","3502557","0 SPACEBEE-105","1 48896U 21059T   22176.86975022  .00007221  00000-0  38008-3 0  9993","2 48896  97.5552 306.3407 0009850  74.5074 285.7245 15.15894279 55208","2021-059T","48896","6896.402","94.993","525.060","511.474","0"
